{
  "type": "FeatureCollection",
  "features": [
    {
      "type": "Feature",
      "properties": {
        "norad_id": 37998,
        "name": "COSMOS 2251 DEB",
        "group": "cosmos-2251-debris",
        "lat": 19.437122540706934,
        "lon": 59.568627126601015,
        "alt_km": 753.6751609010189,
        "timestamp": "2025-12-07T05:38:10.301559+00:00",
        "meta_object_name": "COSMOS 2251 DEB",
        "meta_object_id": "1993-036BQZ",
        "meta_epoch": "2025-11-29T12:31:01.771392",
        "meta_mean_motion": 14.45395467,
        "meta_eccentricity": 0.00197878,
        "meta_inclination": 74.0369,
        "meta_ra_of_asc_node": 259.7366,
        "meta_arg_of_pericenter": 336.2714,
        "meta_mean_anomaly": 23.753,
        "meta_ephemeris_type": 0,
        "meta_classification_type": "U",
        "meta_norad_cat_id": 37998,
        "meta_element_set_no": 999,
        "meta_rev_at_epoch": 64096,
        "meta_bstar": 0.00059073677,
        "meta_mean_motion_dot": 2.057e-05,
        "meta_mean_motion_ddot": 0,
        "tle_line1": "1 37998U 93036BQZ 25333.52154828  .00002057  00000+0  59074-3 0  9999",
        "tle_line2": "2 37998  74.0369 259.7366 0019787 336.2714  23.7530 14.45395467640966"
      },
      "geometry": {
        "type": "Point",
        "coordinates": [
          59.568627126601015,
          19.437122540706934
        ]
      }
    },
    {
      "type": "Feature",
      "properties": {
        "norad_id": 38001,
        "name": "COSMOS 2251 DEB",
        "group": "cosmos-2251-debris",
        "lat": 7.275784929702023,
        "lon": -38.921257381481375,
        "alt_km": 657.7561911793327,
        "timestamp": "2025-12-07T05:38:10.301569+00:00",
        "meta_object_name": "COSMOS 2251 DEB",
        "meta_object_id": "1993-036BRC",
        "meta_epoch": "2025-12-06T11:08:14.987040",
        "meta_mean_motion": 14.78968143,
        "meta_eccentricity": 0.00652918,
        "meta_inclination": 74.0002,
        "meta_ra_of_asc_node": 144.6967,
        "meta_arg_of_pericenter": 295.3198,
        "meta_mean_anomaly": 95.4785,
        "meta_ephemeris_type": 0,
        "meta_classification_type": "U",
        "meta_norad_cat_id": 38001,
        "meta_element_set_no": 999,
        "meta_rev_at_epoch": 74615,
        "meta_bstar": 0.0012854263,
        "meta_mean_motion_dot": 9.815e-05,
        "meta_mean_motion_ddot": 0,
        "tle_line1": "1 38001U 93036BRC 25340.46406235  .00009815  00000+0  12854-2 0  9991",
        "tle_line2": "2 38001  74.0002 144.6967 0065291 295.3198  95.4785 14.78968143746156"
      },
      "geometry": {
        "type": "Point",
        "coordinates": [
          -38.921257381481375,
          7.275784929702023
        ]
      }
    },
    {
      "type": "Feature",
      "properties": {
        "norad_id": 38006,
        "name": "COSMOS 2251 DEB",
        "group": "cosmos-2251-debris",
        "lat": -48.087630381905036,
        "lon": 29.583831718986872,
        "alt_km": 710.8347041795969,
        "timestamp": "2025-12-07T05:38:10.301579+00:00",
        "meta_object_name": "COSMOS 2251 DEB",
        "meta_object_id": "1993-036BRH",
        "meta_epoch": "2025-12-04T21:24:00.571392",
        "meta_mean_motion": 14.45613673,
        "meta_eccentricity": 0.0074849,
        "meta_inclination": 73.8488,
        "meta_ra_of_asc_node": 52.8364,
        "meta_arg_of_pericenter": 2.834,
        "meta_mean_anomaly": 357.3225,
        "meta_ephemeris_type": 0,
        "meta_classification_type": "U",
        "meta_norad_cat_id": 38006,
        "meta_element_set_no": 999,
        "meta_rev_at_epoch": 62846,
        "meta_bstar": 0.0044211,
        "meta_mean_motion_dot": 0.00016183,
        "meta_mean_motion_ddot": 0,
        "tle_line1": "1 38006U 93036BRH 25338.89167328  .00016183  00000+0  44211-2 0  9995",
        "tle_line2": "2 38006  73.8488  52.8364 0074849   2.8340 357.3225 14.45613673628467"
      },
      "geometry": {
        "type": "Point",
        "coordinates": [
          29.583831718986872,
          -48.087630381905036
        ]
      }
    },
    {
      "type": "Feature",
      "properties": {
        "norad_id": 38054,
        "name": "COSMOS 2251 DEB",
        "group": "cosmos-2251-debris",
        "lat": -69.06271490670801,
        "lon": -133.95833638668648,
        "alt_km": 799.7656515637227,
        "timestamp": "2025-12-07T05:38:10.301589+00:00",
        "meta_object_name": "COSMOS 2251 DEB",
        "meta_object_id": "1993-036BRL",
        "meta_epoch": "2025-12-02T22:19:42.729888",
        "meta_mean_motion": 13.62240867,
        "meta_eccentricity": 0.03612337,
        "meta_inclination": 73.958,
        "meta_ra_of_asc_node": 281.8404,
        "meta_arg_of_pericenter": 261.8039,
        "meta_mean_anomaly": 157.9186,
        "meta_ephemeris_type": 0,
        "meta_classification_type": "U",
        "meta_norad_cat_id": 38054,
        "meta_element_set_no": 999,
        "meta_rev_at_epoch": 67046,
        "meta_bstar": 0.0040803835,
        "meta_mean_motion_dot": 4.866e-05,
        "meta_mean_motion_ddot": 0,
        "tle_line1": "1 38054U 93036BRL 25336.93035567  .00004866  00000+0  40804-2 0  9999",
        "tle_line2": "2 38054  73.9580 281.8404 0361233 261.8039 157.9186 13.62240867670467"
      },
      "geometry": {
        "type": "Point",
        "coordinates": [
          -133.95833638668648,
          -69.06271490670801
        ]
      }
    },
    {
      "type": "Feature",
      "properties": {
        "norad_id": 38055,
        "name": "COSMOS 2251 DEB",
        "group": "cosmos-2251-debris",
        "lat": 67.94325811994266,
        "lon": -7.485390966456776,
        "alt_km": 654.4068759637294,
        "timestamp": "2025-12-07T05:38:10.301600+00:00",
        "meta_object_name": "COSMOS 2251 DEB",
        "meta_object_id": "1993-036BRM",
        "meta_epoch": "2025-12-05T22:20:11.945184",
        "meta_mean_motion": 14.76856184,
        "meta_eccentricity": 0.00656782,
        "meta_inclination": 74.0092,
        "meta_ra_of_asc_node": 220.1259,
        "meta_arg_of_pericenter": 349.1321,
        "meta_mean_anomaly": 24.6539,
        "meta_ephemeris_type": 0,
        "meta_classification_type": "U",
        "meta_norad_cat_id": 38055,
        "meta_element_set_no": 999,
        "meta_rev_at_epoch": 60582,
        "meta_bstar": 0.0013919987,
        "meta_mean_motion_dot": 0.00010113,
        "meta_mean_motion_ddot": 0,
        "tle_line1": "1 38055U 93036BRM 25339.93069381  .00010113  00000+0  13920-2 0  9995",
        "tle_line2": "2 38055  74.0092 220.1259 0065678 349.1321  24.6539 14.76856184605821"
      },
      "geometry": {
        "type": "Point",
        "coordinates": [
          -7.485390966456776,
          67.94325811994266
        ]
      }
    },
    {
      "type": "Feature",
      "properties": {
        "norad_id": 38060,
        "name": "COSMOS 2251 DEB",
        "group": "cosmos-2251-debris",
        "lat": -46.38429291288424,
        "lon": 143.35464716579293,
        "alt_km": 727.9597381872954,
        "timestamp": "2025-12-07T05:38:10.301609+00:00",
        "meta_object_name": "COSMOS 2251 DEB",
        "meta_object_id": "1993-036BRS",
        "meta_epoch": "2025-11-30T16:46:11.567136",
        "meta_mean_motion": 14.63742552,
        "meta_eccentricity": 0.0057629,
        "meta_inclination": 74.0424,
        "meta_ra_of_asc_node": 318.4162,
        "meta_arg_of_pericenter": 67.815,
        "meta_mean_anomaly": 292.9119,
        "meta_ephemeris_type": 0,
        "meta_classification_type": "U",
        "meta_norad_cat_id": 38060,
        "meta_element_set_no": 999,
        "meta_rev_at_epoch": 71788,
        "meta_bstar": 0.00051174098,
        "meta_mean_motion_dot": 2.701e-05,
        "meta_mean_motion_ddot": 0,
        "tle_line1": "1 38060U 93036BRS 25334.69874499  .00002701  00000+0  51174-3 0  9991",
        "tle_line2": "2 38060  74.0424 318.4162 0057629  67.8150 292.9119 14.63742552717884"
      },
      "geometry": {
        "type": "Point",
        "coordinates": [
          143.35464716579293,
          -46.38429291288424
        ]
      }
    },
    {
      "type": "Feature",
      "properties": {
        "norad_id": 38062,
        "name": "COSMOS 2251 DEB",
        "group": "cosmos-2251-debris",
        "lat": -49.762927374724185,
        "lon": -78.22588778348945,
        "alt_km": 595.4153673421661,
        "timestamp": "2025-12-07T05:38:10.301619+00:00",
        "meta_object_name": "COSMOS 2251 DEB",
        "meta_object_id": "1993-036BRU",
        "meta_epoch": "2025-12-06T04:12:38.753856",
        "meta_mean_motion": 14.94290132,
        "meta_eccentricity": 0.00122346,
        "meta_inclination": 74.0094,
        "meta_ra_of_asc_node": 303.7202,
        "meta_arg_of_pericenter": 72.1633,
        "meta_mean_anomaly": 298.7726,
        "meta_ephemeris_type": 0,
        "meta_classification_type": "U",
        "meta_norad_cat_id": 38062,
        "meta_element_set_no": 999,
        "meta_rev_at_epoch": 62932,
        "meta_bstar": 0.0035053507,
        "meta_mean_motion_dot": 0.00037877,
        "meta_mean_motion_ddot": 0,
        "tle_line1": "1 38062U 93036BRU 25340.17544854  .00037877  00000+0  35054-2 0  9992",
        "tle_line2": "2 38062  74.0094 303.7202 0012234  72.1633 298.7726 14.94290132629324"
      },
      "geometry": {
        "type": "Point",
        "coordinates": [
          -78.22588778348945,
          -49.762927374724185
        ]
      }
    }
  ]
}